NORAD_CAT_ID,OBJECT_NAME,OBJECT_TYPE,EPOCH,MEAN_MOTION,ECCENTRICITY,INCLINATION,RA_OF_ASC_NODE,ARG_OF_PERICENTER,MEAN_ANOMALY,BSTAR,MEAN_MOTION_DOT,MEAN_MOTION_DDOT,TLE_LINE0,TLE_LINE1,TLE_LINE2,SEMIMAJOR_AXIS,PERIOD,APOGEE,PERIGEE,DECAYED
49738.0,STARLINK-3143,PAYLOAD,2024-07-30 21:03:26,15.08852183,0.0001197,53.216,263.6305,80.6749,279.4378,7.4343e-05,8.96e-06,0.0,0 STARLINK-3143,1 49738U 21115Q   24212.87738527  .00000896  00000-0  74343-4 0  9997,2 49738  53.2160 263.6305 0001197  80.6749 279.4378 15.08852183148056,6917.843,95.437,540.536,538.88,0.0
49738.0,STARLINK-3143,PAYLOAD,2024-07-31 12:57:16,15.08860035,0.0001392,53.2167,260.6549,95.8104,264.3047,3.014e-05,1.92e-06,0.0,0 STARLINK-3143,1 49738U 21115Q   24213.53977926  .00000192  00000-0  30140-4 0  9995,2 49738  53.2167 260.6549 0001392  95.8104 264.3047 15.08860035147049,6917.819,95.436,540.647,538.721,0.0
49738.0,STARLINK-3143,PAYLOAD,2024-08-01 12:48:05,15.08837571,0.0001335,53.2168,256.1937,99.6774,260.4369,-1.4076e-05,-5.12e-06,0.0,0 STARLINK-3143,1 49738U 21115Q   24214.53339438 -.00000512  00000-0 -14076-4 0  9994,2 49738  53.2168 256.1937 0001335  99.6774 260.4369 15.08837571148306,6917.888,95.438,540.676,538.829,0.0
49738.0,STARLINK-3143,PAYLOAD,2024-08-02 12:38:51,15.08846353,0.0001207,53.2159,251.7364,92.5948,267.5183,-2.9737e-06,-3.35e-06,0.0,0 STARLINK-3143,1 49738U 21115Q   24215.52698908 -.00000335  00000-0 -29737-5 0  9998,2 49738  53.2159 251.7364 0001207  92.5948 267.5183 15.08846353148450,6917.861,95.437,540.561,538.891,0.0
49738.0,STARLINK-3143,PAYLOAD,2024-08-03 09:18:53,15.0883489,0.0001316,53.2161,247.8724,98.6692,261.445,6.9316e-05,8.15e-06,0.0,0 STARLINK-3143,1 49738U 21115Q   24216.38811729  .00000815  00000-0  69316-4 0  9998,2 49738  53.2161 247.8724 0001316  98.6692 261.4450 15.08834890148580,6917.896,95.438,540.671,538.851,0.0
49738.0,STARLINK-3143,PAYLOAD,2024-08-04 12:20:26,15.08842302,0.0001341,53.2159,242.8169,97.0176,263.0969,8.276e-05,1.03e-05,0.0,0 STARLINK-3143,1 49738U 21115Q   24217.51419554  .00001030  00000-0  82760-4 0  9992,2 49738  53.2159 242.8169 0001341  97.0176 263.0969 15.08842302148752,6917.873,95.437,540.666,538.811,0.0
49738.0,STARLINK-3143,PAYLOAD,2024-08-04 18:41:59,15.08837089,0.0001113,53.214,241.6244,87.1776,272.9343,4.6126e-05,4.46e-06,0.0,0 STARLINK-3143,1 49738U 21115Q   24217.77915998  .00000446  00000-0  46126-4 0  9999,2 49738  53.2140 241.6244 0001113  87.1776 272.9343 15.08837089147688,6917.889,95.438,540.524,538.984,0.0
49738.0,STARLINK-3143,PAYLOAD,2024-08-05 09:00:27,15.08842437,0.000147,53.2168,238.9475,85.1036,275.0124,1.5217e-05,-4.6e-07,0.0,0 STARLINK-3143,1 49738U 21115Q   24218.37532098 -.00000046  00000-0  15217-4 0  9996,2 49738  53.2168 238.9475 0001470  85.1036 275.0124 15.08842437147770,6917.873,95.437,540.755,538.721,0.0
49738.0,STARLINK-3143,PAYLOAD,2024-08-06 05:40:29,15.0883561,0.0001519,53.2164,235.0823,87.1067,273.0099,2.3047e-05,7.9e-07,0.0,0 STARLINK-3143,1 49738U 21115Q   24219.23644697  .00000079  00000-0  23047-4 0  9996,2 49738  53.2164 235.0823 0001519  87.1067 273.0099 15.08835610149014,6917.894,95.438,540.81,538.708,0.0
49738.0,STARLINK-3143,PAYLOAD,2024-08-06 08:51:15,15.08836433,0.0001392,53.2159,234.489,91.6372,268.478,3.2858e-05,2.35e-06,0.0,0 STARLINK-3143,1 49738U 21115Q   24219.36892610  .00000235  00000-0  32858-4 0  9994,2 49738  53.2159 234.4890 0001392  91.6372 268.4780 15.08836433147920,6917.891,95.438,540.719,538.793,0.0
49738.0,STARLINK-3143,PAYLOAD,2024-08-06 18:23:34,15.08828474,0.0001406,53.2158,232.7047,95.7205,264.3948,0.00017084,2.431e-05,0.0,0 STARLINK-3143,1 49738U 21115Q   24219.76636862  .00002431  00000-0  17084-3 0  9996,2 49738  53.2158 232.7047 0001406  95.7205 264.3948 15.08828474147983,6917.916,95.438,540.753,538.808,0.0
49738.0,STARLINK-3143,PAYLOAD,2024-08-07 05:31:15,15.08833224,0.0001381,53.2157,230.6227,90.927,269.1881,0.0001852,2.66e-05,0.0,0 STARLINK-3143,1 49738U 21115Q   24220.23004591  .00002660  00000-0  18520-3 0  9998,2 49738  53.2157 230.6227 0001381  90.9270 269.1881 15.08833224148057,6917.901,95.438,540.721,538.811,0.0
49738.0,STARLINK-3143,PAYLOAD,2024-08-08 06:57:25,15.08847724,0.0001403,53.2158,225.8645,92.0191,268.0962,0.00013534,1.867e-05,0.0,0 STARLINK-3143,1 49738U 21115Q   24221.28987729  .00001867  00000-0  13534-3 0  9995,2 49738  53.2158 225.8645 0001403  92.0191 268.0962 15.08847724148214,6917.857,95.437,540.692,538.751,0.0
49738.0,STARLINK-3143,PAYLOAD,2024-08-09 05:12:49,15.08840658,0.0001533,53.2169,221.7022,89.9578,270.159,1.7881e-05,-3e-08,0.0,0 STARLINK-3143,1 49738U 21115Q   24222.21724402 -.00000003  00000-0  17881-4 0  9998,2 49738  53.2169 221.7022 0001533  89.9578 270.1590 15.08840658149466,6917.878,95.438,540.804,538.683,0.0
49738.0,STARLINK-3143,PAYLOAD,2024-08-09 06:48:12,15.08841426,0.0001526,53.2169,221.4051,88.2073,271.9094,2.6248e-05,1.3e-06,0.0,0 STARLINK-3143,1 49738U 21115Q   24222.28348319  .00000130  00000-0  26248-4 0  9991,2 49738  53.2169 221.4051 0001526  88.2073 271.9094 15.08841426148369,6917.876,95.437,540.797,538.685,0.0
49738.0,STARLINK-3143,PAYLOAD,2024-08-10 03:28:13,15.08842143,0.0001528,53.2174,217.5408,88.8953,271.2214,2.0889e-05,4.4e-07,0.0,0 STARLINK-3143,1 49738U 21115Q   24223.14460180  .00000044  00000-0  20889-4 0  9997,2 49738  53.2174 217.5408 0001528  88.8953 271.2214 15.08842143148490,6917.874,95.437,540.796,538.682,0.0
49738.0,STARLINK-3143,PAYLOAD,2024-08-11 08:05:09,15.08842189,0.0001455,53.2176,212.1878,95.2609,264.855,9.4702e-05,1.22e-05,0.0,0 STARLINK-3143,1 49738U 21115Q   24224.33692066  .00001220  00000-0  94702-4 0  9991,2 49738  53.2176 212.1878 0001455  95.2609 264.8550 15.08842189149787,6917.874,95.437,540.745,538.732,0.0
49738.0,STARLINK-3143,PAYLOAD,2024-08-11 16:02:05,15.0883982,0.000142,53.2176,210.7005,88.9023,271.2131,8.1036e-05,1.002e-05,0.0,0 STARLINK-3143,1 49738U 21115Q   24224.66812309  .00001002  00000-0  81036-4 0  9995,2 49738  53.2176 210.7005 0001420  88.9023 271.2131 15.08839820148722,6917.881,95.438,540.728,538.764,0.0
49738.0,STARLINK-3143,PAYLOAD,2024-08-12 07:55:56,15.08852576,0.0001415,53.2169,207.7229,90.4772,269.6382,0.00012229,1.659e-05,0.0,0 STARLINK-3143,1 49738U 21115Q   24225.33051309  .00001659  00000-0  12229-3 0  9990,2 49738  53.2169 207.7229 0001415  90.4772 269.6382 15.08852576148824,6917.842,95.437,540.686,538.728,0.0
49738.0,STARLINK-3143,PAYLOAD,2024-08-12 15:52:52,15.08844243,0.0001602,53.2164,206.2361,103.2455,256.8716,9.6556e-05,1.249e-05,0.0,0 STARLINK-3143,1 49738U 21115Q   24225.66171833  .00001249  00000-0  96556-4 0  9992,2 49738  53.2164 206.2361 0001602 103.2455 256.8716 15.08844243149988,6917.867,95.437,540.841,538.624,0.0
49738.0,STARLINK-3143,PAYLOAD,2024-08-13 07:46:43,15.08846697,0.0001426,53.2175,203.2655,90.861,269.2546,5.2963e-05,5.55e-06,0.0,0 STARLINK-3143,1 49738U 21115Q   24226.32411594  .00000555  00000-0  52963-4 0  9990,2 49738  53.2175 203.2655 0001426  90.8610 269.2546 15.08846697148973,6917.86,95.437,540.711,538.738,0.0
49738.0,STARLINK-3143,PAYLOAD,2024-08-13 15:43:39,15.08841648,0.0001028,53.216,201.7755,83.3359,276.775,-2.1252e-05,-6.26e-06,0.0,0 STARLINK-3143,1 49738U 21115Q   24226.65532053 -.00000626  00000-0 -21252-4 0  9998,2 49738  53.2160 201.7755 0001028  83.3359 276.7750 15.08841648150138,6917.875,95.437,540.452,539.029,0.0
49738.0,STARLINK-3143,PAYLOAD,2024-08-14 04:26:46,15.08827167,0.000138,53.2173,199.3974,93.3286,266.7864,-0.0001101,-2.039e-05,0.0,0 STARLINK-3143,1 49738U 21115Q   24227.18525790 -.00002039  00000-0 -11010-3 0  9997,2 49738  53.2173 199.3974 0001380  93.3286 266.7864 15.08827167150212,6917.92,95.438,540.739,538.83,0.0
49738.0,STARLINK-3143,PAYLOAD,2024-08-14 07:37:32,15.08826732,0.0001376,53.2174,198.8028,93.5978,266.5171,-0.00011139,-2.06e-05,0.0,0 STARLINK-3143,1 49738U 21115Q   24227.31773914 -.00002060  00000-0 -11139-3 0  9991,2 49738  53.2174 198.8028 0001376  93.5978 266.5171 15.08826732149126,6917.921,95.438,540.738,538.834,0.0
49738.0,STARLINK-3143,PAYLOAD,2024-08-14 15:34:28,15.08834305,0.0001476,53.218,197.3168,93.6611,266.455,-0.00013225,-2.392e-05,0.0,0 STARLINK-3143,1 49738U 21115Q   24227.64893681 -.00002392  00000-0 -13225-3 0  9997,2 49738  53.2180 197.3168 0001476  93.6611 266.4550 15.08834305150282,6917.898,95.438,540.784,538.742,0.0
49738.0,STARLINK-3143,PAYLOAD,2024-08-15 04:17:32,15.08840898,0.0001298,53.2161,194.9384,96.3245,263.7895,7.28e-06,-1.72e-06,0.0,0 STARLINK-3143,1 49738U 21115Q   24228.17885137 -.00000172  00000-0  72800-5 0  9992,2 49738  53.2161 194.9384 0001298  96.3245 263.7895 15.08840898150364,6917.878,95.437,540.641,538.845,0.0
49738.0,STARLINK-3143,PAYLOAD,2024-08-15 15:25:14,15.08844496,0.0001448,53.2171,192.8567,93.1133,267.0025,3.0973e-05,2.05e-06,0.0,0 STARLINK-3143,1 49738U 21115Q   24228.64252918  .00000205  00000-0  30973-4 0  9999,2 49738  53.2171 192.8567 0001448  93.1133 267.0025 15.08844496149327,6917.867,95.437,540.733,538.73,0.0
49738.0,STARLINK-3143,PAYLOAD,2024-08-16 04:08:20,15.08847553,0.0001409,53.2151,190.4787,90.4577,269.6576,0.00040912,6.231e-05,0.0,0 STARLINK-3143,1 49738U 21115Q   24229.17245399  .00006231  00000-0  40912-3 0  9991,2 49738  53.2151 190.4787 0001409  90.4577 269.6576 15.08847553149407,6917.857,95.437,540.697,538.748,0.0
49738.0,STARLINK-3143,PAYLOAD,2024-08-16 21:37:34,15.0885254,0.0001461,53.2151,187.2072,93.1162,266.9998,0.00023181,3.404e-05,0.0,0 STARLINK-3143,1 49738U 21115Q   24229.90108851  .00003404  00000-0  23181-3 0  9991,2 49738  53.2151 187.2072 0001461  93.1162 266.9998 15.08852540150622,6917.842,95.437,540.718,538.696,0.0
49738.0,STARLINK-3143,PAYLOAD,2024-08-17 03:59:05,15.08872582,0.0001278,53.2155,186.0178,98.8832,261.2305,0.00046645,7.15e-05,0.0,0 STARLINK-3143,1 49738U 21115Q   24230.16603638  .00007150  00000-0  46645-3 0  9996,2 49738  53.2155 186.0178 0001278  98.8832 261.2305 15.08872582150664,6917.781,95.435,540.53,538.762,0.0
